NORAD_CAT_ID,OBJECT_NAME,OBJECT_TYPE,EPOCH,MEAN_MOTION,ECCENTRICITY,INCLINATION,RA_OF_ASC_NODE,ARG_OF_PERICENTER,MEAN_ANOMALY,BSTAR,MEAN_MOTION_DOT,MEAN_MOTION_DDOT,TLE_LINE0,TLE_LINE1,TLE_LINE2,SEMIMAJOR_AXIS,PERIOD,APOGEE,PERIGEE,DECAYED
54079.0,STARLINK-5175,PAYLOAD,2024-05-21 20:54:37,15.08842858,0.0001479,53.2187,42.9098,94.7988,265.3173,0.00013174,1.809e-05,0.0,0 STARLINK-5175,1 54079U 22136AE  24142.87126892  .00001809  00000-0  13174-3 0  9992,2 54079  53.2187  42.9098 0001479  94.7988 265.3173 15.08842858 88306,6917.872,95.437,540.76,538.713,0.0
54079.0,STARLINK-5175,PAYLOAD,2024-05-21 22:30:00,15.08843395,0.0001494,53.2187,42.6124,92.1027,268.0136,0.00015631,2.201e-05,0.0,0 STARLINK-5175,1 54079U 22136AE  24142.93750890  .00002201  00000-0  15631-3 0  9997,2 54079  53.2187  42.6124 0001494  92.1027 268.0136 15.08843395 87839,6917.87,95.437,540.769,538.701,0.0
54079.0,STARLINK-5175,PAYLOAD,2024-05-22 03:16:09,15.08847194,0.000139,53.2188,41.7205,93.5113,266.6039,0.00021685,3.166e-05,0.0,0 STARLINK-5175,1 54079U 22136AE  24143.13622580  .00003166  00000-0  21685-3 0  9991,2 54079  53.2188  41.7205 0001390  93.5113 266.6039 15.08847194 87866,6917.858,95.437,540.685,538.762,0.0
54079.0,STARLINK-5175,PAYLOAD,2024-05-22 20:45:24,15.08841912,0.0001718,53.2183,38.4491,116.0436,244.0733,0.00011474,1.539e-05,0.0,0 STARLINK-5175,1 54079U 22136AE  24143.86486863  .00001539  00000-0  11474-3 0  9990,2 54079  53.2183  38.4491 0001718 116.0436 244.0733 15.08841912 87979,6917.875,95.437,540.928,538.551,0.0
54079.0,STARLINK-5175,PAYLOAD,2024-05-22 23:56:10,15.08844067,0.0001541,53.2186,37.8571,100.0941,260.0225,0.00014127,1.961e-05,0.0,0 STARLINK-5175,1 54079U 22136AE  24143.99734818  .00001961  00000-0  14127-3 0  9997,2 54079  53.2186  37.8571 0001541 100.0941 260.0225 15.08844067 88476,6917.868,95.437,540.799,538.667,0.0
54079.0,STARLINK-5175,PAYLOAD,2024-05-23 20:36:11,15.08844202,0.000153,53.2182,33.9942,97.4677,262.6489,4.828e-05,4.81e-06,0.0,0 STARLINK-5175,1 54079U 22136AE  24144.85846825  .00000481  00000-0  48280-4 0  9999,2 54079  53.2182  33.9942 0001530  97.4677 262.6489 15.08844202 88127,6917.868,95.437,540.791,538.674,0.0
54079.0,STARLINK-5175,PAYLOAD,2024-05-24 02:57:43,15.088477,0.0001617,53.2184,32.8027,107.2897,252.8272,6.9618e-05,8.2e-06,0.0,0 STARLINK-5175,1 54079U 22136AE  24145.12342567  .00000820  00000-0  69618-4 0  9999,2 54079  53.2184  32.8027 0001617 107.2897 252.8272 15.08847700 88645,6917.857,95.437,540.84,538.603,0.0
54079.0,STARLINK-5175,PAYLOAD,2024-05-24 15:40:49,15.08834428,0.0002647,53.2178,30.4197,145.3093,214.8072,-5.2665e-05,-1.126e-05,0.0,0 STARLINK-5175,1 54079U 22136AE  24145.65335096 -.00001126  00000-0 -52665-4 0  9992,2 54079  53.2178  30.4197 0002647 145.3093 214.8072 15.08834428 88723,6917.897,95.438,541.594,537.931,0.0
54079.0,STARLINK-5175,PAYLOAD,2024-05-24 22:02:22,15.08838342,0.0001485,53.2168,29.2394,104.5101,255.6056,-1.4089e-05,-5.12e-06,0.0,0 STARLINK-5175,1 54079U 22136AE  24145.91831138 -.00000512  00000-0 -14089-4 0  9995,2 54079  53.2168  29.2394 0001485 104.5101 255.6056 15.08838342 88288,6917.885,95.438,540.778,538.723,0.0
54079.0,STARLINK-5175,PAYLOAD,2024-05-24 23:37:45,15.08840901,0.000149,53.2182,28.9433,80.3924,279.7236,-8.7531e-06,-4.27e-06,0.0,0 STARLINK-5175,1 54079U 22136AE  24145.98455118 -.00000427  00000-0 -87531-5 0  9990,2 54079  53.2182  28.9433 0001490  80.3924 279.7236 15.08840901 88779,6917.878,95.437,540.773,538.712,0.0
54079.0,STARLINK-5175,PAYLOAD,2024-05-25 09:10:03,15.08842639,9.11e-05,53.2173,27.1513,115.3387,244.77,1.3306e-06,-2.67e-06,0.0,0 STARLINK-5175,1 54079U 22136AE  24146.38198560 -.00000267  00000-0  13306-5 0  9990,2 54079  53.2173  27.1513 0000911 115.3387 244.7700 15.08842639 88350,6917.872,95.437,540.368,539.107,0.0
54079.0,STARLINK-5175,PAYLOAD,2024-05-26 15:22:24,15.08837189,0.0001228,53.2179,21.5082,87.8892,272.224,0.00016031,2.264e-05,0.0,0 STARLINK-5175,1 54079U 22136AE  24147.64055592  .00002264  00000-0  16031-3 0  9991,2 54079  53.2179  21.5082 0001228  87.8892 272.2240 15.08837189 88541,6917.889,95.438,540.603,538.904,0.0
54079.0,STARLINK-5175,PAYLOAD,2024-05-26 21:43:56,15.08839173,0.0001196,53.2173,20.3177,93.1427,266.9702,5.8205e-05,6.39e-06,0.0,0 STARLINK-5175,1 54079U 22136AE  24147.90551490  .00000639  00000-0  58205-4 0  9992,2 54079  53.2173  20.3177 0001196  93.1427 266.9702 15.08839173 89061,6917.883,95.438,540.575,538.921,0.0
54079.0,STARLINK-5175,PAYLOAD,2024-05-27 00:54:42,15.0885029,0.0001232,53.2177,19.7221,98.615,261.4982,0.00021135,3.078e-05,0.0,0 STARLINK-5175,1 54079U 22136AE  24148.03798938  .00003078  00000-0  21135-3 0  9998,2 54079  53.2177  19.7221 0001232  98.6150 261.4982 15.08850290 89086,6917.849,95.437,540.566,538.862,0.0
54079.0,STARLINK-5175,PAYLOAD,2024-05-27 08:51:38,15.08836374,0.0001112,53.2176,18.238,97.602,262.5099,-2.8485e-05,-7.41e-06,0.0,0 STARLINK-5175,1 54079U 22136AE  24148.36919566 -.00000741  00000-0 -28485-4 0  9998,2 54079  53.2176  18.2380 0001112  97.6020 262.5099 15.08836374 89131,6917.891,95.438,540.526,538.987,0.0
54079.0,STARLINK-5175,PAYLOAD,2024-05-27 21:34:43,15.08840067,0.0001388,53.2177,15.8565,91.8323,268.2828,2.715e-05,1.44e-06,0.0,0 STARLINK-5175,1 54079U 22136AE  24148.89911685  .00000144  00000-0  27150-4 0  9993,2 54079  53.2177  15.8565 0001388  91.8323 268.2828 15.08840067 88739,6917.88,95.438,540.705,538.785,0.0
54079.0,STARLINK-5175,PAYLOAD,2024-05-28 08:42:25,15.08840908,0.0001637,53.2193,13.7697,75.3014,284.816,3.9598e-05,3.42e-06,0.0,0 STARLINK-5175,1 54079U 22136AE  24149.36279622  .00000342  00000-0  39598-4 0  9993,2 54079  53.2193  13.7697 0001637  75.3014 284.8160 15.08840908 88806,6917.878,95.437,540.875,538.61,0.0
54079.0,STARLINK-5175,PAYLOAD,2024-05-28 21:25:30,15.08849312,0.000132,53.2184,11.3934,97.7956,262.3186,8.9747e-06,-1.45e-06,0.0,0 STARLINK-5175,1 54079U 22136AE  24149.89270942 -.00000145  00000-0  89747-5 0  9991,2 54079  53.2184  11.3934 0001320  97.7956 262.3186 15.08849312 89365,6917.852,95.437,540.63,538.804,0.0
54079.0,STARLINK-5175,PAYLOAD,2024-05-29 14:54:45,15.08838884,0.000152,53.2198,8.1256,94.6479,265.4687,2.3111e-05,8e-07,0.0,0 STARLINK-5175,1 54079U 22136AE  24150.62135603  .00000080  00000-0  23111-4 0  9997,2 54079  53.2198   8.1256 0001520  94.6479 265.4687 15.08838884 88999,6917.884,95.438,540.8,538.697,0.0
54079.0,STARLINK-5175,PAYLOAD,2024-05-29 19:40:54,15.08837953,0.0001531,53.2195,7.2339,103.7496,256.3667,2.6959e-05,1.41e-06,0.0,0 STARLINK-5175,1 54079U 22136AE  24150.82007756  .00000141  00000-0  26959-4 0  9997,2 54079  53.2195   7.2339 0001531 103.7496 256.3667 15.08837953 89502,6917.887,95.438,540.811,538.693,0.0
54079.0,STARLINK-5175,PAYLOAD,2024-05-30 00:27:04,15.08838883,0.0001545,53.2193,6.3402,105.0455,255.0708,2.7981e-05,1.57e-06,0.0,0 STARLINK-5175,1 54079U 22136AE  24151.01879664  .00000157  00000-0  27981-4 0  9997,2 54079  53.2193   6.3402 0001545 105.0455 255.0708 15.08838883 89051,6917.884,95.438,540.818,538.68,0.0
54079.0,STARLINK-5175,PAYLOAD,2024-05-30 21:07:04,15.08810183,0.0001714,53.2189,2.4744,112.6548,247.4626,0.00060101,9.282e-05,0.0,0 STARLINK-5175,1 54079U 22136AE  24151.87991884  .00009282  00000-0  60101-3 0  9998,2 54079  53.2189   2.4744 0001714 112.6548 247.4626 15.08810183 89661,6917.972,95.439,541.022,538.651,0.0
54079.0,STARLINK-5175,PAYLOAD,2024-05-31 00:17:50,15.08856743,0.0001485,53.2185,1.8789,107.0476,253.0679,-3.3978e-05,-8.29e-06,0.0,0 STARLINK-5175,1 54079U 22136AE  24152.01238632 -.00000829  00000-0 -33978-4 0  9993,2 54079  53.2185   1.8789 0001485 107.0476 253.0679 15.08856743 89687,6917.829,95.436,540.722,538.667,0.0
54079.0,STARLINK-5175,PAYLOAD,2024-05-31 14:36:19,15.08840554,0.0001504,53.2184,359.2021,109.5809,250.5346,9.686e-05,1.254e-05,0.0,0 STARLINK-5175,1 54079U 22136AE  24152.60855395  .00001254  00000-0  96860-4 0  9999,2 54079  53.2184 359.2021 0001504 109.5809 250.5346 15.08840554 89297,6917.879,95.438,540.784,538.703,0.0
54079.0,STARLINK-5175,PAYLOAD,2024-05-31 20:57:51,15.08845041,0.000125,53.2184,358.016,98.7911,261.3222,0.00012586,1.716e-05,0.0,0 STARLINK-5175,1 54079U 22136AE  24152.87351024  .00001716  00000-0  12586-3 0  9993,2 54079  53.2184 358.0160 0001250  98.7911 261.3222 15.08845041 89333,6917.865,95.437,540.595,538.865,0.0
54079.0,STARLINK-5175,PAYLOAD,2024-06-01 06:30:10,15.08846638,0.0001211,53.218,356.2322,95.6111,264.5019,8.342e-05,1.04e-05,0.0,0 STARLINK-5175,1 54079U 22136AE  24153.27094992  .00001040  00000-0  83420-4 0  9992,2 54079  53.2180 356.2322 0001211  95.6111 264.5019 15.08846638 89875,6917.86,95.437,540.563,538.887,0.0
54079.0,STARLINK-5175,PAYLOAD,2024-06-01 20:48:39,15.08838963,0.0001314,53.2178,353.553,76.9967,283.1172,-2.824e-05,-7.37e-06,0.0,0 STARLINK-5175,1 54079U 22136AE  24153.86711970 -.00000737  00000-0 -28240-4 0  9992,2 54079  53.2178 353.5530 0001314  76.9967 283.1172 15.08838963 89967,6917.884,95.438,540.658,538.84,0.0
54079.0,STARLINK-5175,PAYLOAD,2024-06-02 12:42:30,15.08837175,0.0001394,53.2187,350.5822,88.8254,271.2898,7.5848e-05,9.19e-06,0.0,0 STARLINK-5175,1 54079U 22136AE  24154.52951933  .00000919  00000-0  75848-4 0  9997,2 54079  53.2187 350.5822 0001394  88.8254 271.2898 15.08837175 89582,6917.889,95.438,540.718,538.79,0.0
54079.0,STARLINK-5175,PAYLOAD,2024-06-03 18:54:50,15.08832537,0.0001535,53.219,344.9329,86.7577,273.3591,0.00031723,4.763e-05,0.0,0 STARLINK-5175,1 54079U 22136AE  24155.78808047  .00004763  00000-0  31723-3 0  9997,2 54079  53.2190 344.9329 0001535  86.7577 273.3591 15.08832537 90253,6917.903,95.438,540.83,538.706,0.0
54079.0,STARLINK-5175,PAYLOAD,2024-06-04 06:02:31,15.08844449,0.0001407,53.2185,342.8516,80.7197,279.3954,0.00010324,1.356e-05,0.0,0 STARLINK-5175,1 54079U 22136AE  24156.25175543  .00001356  00000-0  10324-3 0  9997,2 54079  53.2185 342.8516 0001407  80.7197 279.3954 15.08844449 90324,6917.867,95.437,540.705,538.758,0.0
